{
  "norad_id": 53025,
  "name": "STARLINK-4218",
  "history": [
    {
      "epoch": "2026-03-28T22:23:35.427552Z",
      "apogee_km": 540.7446985742026,
      "perigee_km": 538.7387904534444,
      "latitude_deg": -8.835762466938942e-06,
      "longitude_deg": -164.50981229902294,
      "height_km": 540.5922086512484,
      "semi_major_axis_km": 6917.878744513823,
      "eccentricity": 0.00014498,
      "inclination_deg": 53.2193,
      "raan_deg": 357.7342,
      "arg_perigee_deg": 87.4099,
      "mean_anomaly_deg": 272.7059,
      "mean_motion_rev_day": 15.08840538
    },
    {
      "epoch": "2026-03-29T01:34:21.545760Z",
      "apogee_km": 540.719349755469,
      "perigee_km": 538.7519067799894,
      "latitude_deg": 5.43905851254127e-06,
      "longitude_deg": 147.07326262906668,
      "height_km": 540.5880131619468,
      "semi_major_axis_km": 6917.872628267729,
      "eccentricity": 0.0001422,
      "inclination_deg": 53.219,
      "raan_deg": 357.14,
      "arg_perigee_deg": 87.4709,
      "mean_anomaly_deg": 272.6446,
      "mean_motion_rev_day": 15.08842539
    }
  ]
}